NORAD_CAT_ID,OBJECT_NAME,OBJECT_TYPE,EPOCH,MEAN_MOTION,ECCENTRICITY,INCLINATION,RA_OF_ASC_NODE,ARG_OF_PERICENTER,MEAN_ANOMALY,BSTAR,MEAN_MOTION_DOT,MEAN_MOTION_DDOT,TLE_LINE0,TLE_LINE1,TLE_LINE2,SEMIMAJOR_AXIS,PERIOD,APOGEE,PERIGEE,DECAYED
53180.0,STARLINK-4258,PAYLOAD,2023-11-01 21:34:16,15.08852882,0.0001407,53.2197,19.2523,89.0404,271.075,0.00040936,6.235e-05,0.0,0 STARLINK-4258,1 53180U 22083BA  23305.89880113  .00006235  00000-0  40936-3 0  9994,2 53180  53.2197  19.2523 0001407  89.0404 271.0750 15.08852882 72261,6917.841,95.437,540.679,538.733,0.0
53180.0,STARLINK-4258,PAYLOAD,2023-11-02 11:52:44,15.08853225,0.0001711,53.2205,16.5808,105.9873,254.1308,0.00028353,4.229e-05,0.0,0 STARLINK-4258,1 53180U 22083BA  23306.49495892  .00004229  00000-0  28353-3 0  9997,2 53180  53.2205  16.5808 0001711 105.9873 254.1308 15.08853225 72356,6917.84,95.437,540.889,538.521,0.0
53180.0,STARLINK-4258,PAYLOAD,2023-11-02 21:25:03,15.08848041,0.0001481,53.2191,14.7948,100.4054,259.7105,0.00011565,1.553e-05,0.0,0 STARLINK-4258,1 53180U 22083BA  23306.89239796  .00001553  00000-0  11565-3 0  9994,2 53180  53.2191  14.7948 0001481 100.4054 259.7105 15.08848041 72413,6917.856,95.437,540.745,538.696,0.0
53180.0,STARLINK-4258,PAYLOAD,2023-11-03 03:46:35,15.08846572,0.0001793,53.2209,13.6082,106.8518,253.2671,5.3215e-05,5.59e-06,0.0,0 STARLINK-4258,1 53180U 22083BA  23307.15735862  .00000559  00000-0  53215-4 0  9993,2 53180  53.2209  13.6082 0001793 106.8518 253.2671 15.08846572 73090,6917.86,95.437,540.966,538.485,0.0
53180.0,STARLINK-4258,PAYLOAD,2023-11-03 11:43:31,15.08839998,0.0001528,53.2197,12.119,94.8666,265.2501,-7.4044e-05,-1.466e-05,0.0,0 STARLINK-4258,1 53180U 22083BA  23307.48856194 -.00001466  00000-0 -74044-4 0  9994,2 53180  53.2197  12.1190 0001528  94.8666 265.2501 15.08839998 73141,6917.88,95.438,540.802,538.688,0.0
53180.0,STARLINK-4258,PAYLOAD,2023-11-03 21:15:50,15.08837649,0.0001529,53.2194,10.3349,95.9759,264.1407,-9.4565e-05,-1.793e-05,0.0,0 STARLINK-4258,1 53180U 22083BA  23307.88600382 -.00001793  00000-0 -94565-4 0  9997,2 53180  53.2194  10.3349 0001529  95.9759 264.1407 15.08837649 72569,6917.888,95.438,540.81,538.695,0.0
53180.0,STARLINK-4258,PAYLOAD,2023-11-04 11:34:19,15.08840741,0.000164,53.2192,7.6587,95.5881,264.5298,6.3893e-05,7.29e-06,0.0,0 STARLINK-4258,1 53180U 22083BA  23308.48216565  .00000729  00000-0  63893-4 0  9996,2 53180  53.2192   7.6587 0001640  95.5881 264.5298 15.08840741 72655,6917.878,95.438,540.878,538.609,0.0
53180.0,STARLINK-4258,PAYLOAD,2023-11-05 03:28:10,15.08843295,0.0001633,53.2189,4.684,86.7165,273.4014,0.00025786,3.819e-05,0.0,0 STARLINK-4258,1 53180U 22083BA  23309.14456588  .00003819  00000-0  25786-3 0  9992,2 53180  53.2189   4.6840 0001633  86.7165 273.4014 15.08843295 73393,6917.87,95.437,540.865,538.606,0.0
53180.0,STARLINK-4258,PAYLOAD,2023-11-05 11:25:05,15.08856245,0.0001687,53.2185,3.1974,79.8369,280.2813,0.00046664,7.15e-05,0.0,0 STARLINK-4258,1 53180U 22083BA  23309.47576173  .00007150  00000-0  46664-3 0  9991,2 53180  53.2185   3.1974 0001687  79.8369 280.2813 15.08856245 72806,6917.831,95.437,540.863,538.529,0.0
53180.0,STARLINK-4258,PAYLOAD,2023-11-05 20:57:24,15.08856993,0.000162,53.2185,1.4145,88.9706,271.1472,0.00046733,7.161e-05,0.0,0 STARLINK-4258,1 53180U 22083BA  23309.87320027  .00007161  00000-0  46733-3 0  9999,2 53180  53.2185   1.4145 0001620  88.9706 271.1472 15.08856993 72866,6917.828,95.436,540.814,538.573,0.0
53180.0,STARLINK-4258,PAYLOAD,2023-11-06 03:18:56,15.08855849,0.0001706,53.2184,0.2237,91.035,269.0838,0.00036988,5.606e-05,0.0,0 STARLINK-4258,1 53180U 22083BA  23310.13815907  .00005606  00000-0  36988-3 0  9999,2 53180  53.2184   0.2237 0001706  91.0350 269.0838 15.08855849 73546,6917.832,95.437,540.877,538.517,0.0
53180.0,STARLINK-4258,PAYLOAD,2023-11-06 09:40:29,15.08862936,0.0001497,53.2169,359.0348,92.9552,267.1611,0.00043515,6.649e-05,0.0,0 STARLINK-4258,1 53180U 22083BA  23310.40311358  .00006649  00000-0  43515-3 0  9992,2 53180  53.2169 359.0348 0001497  92.9552 267.1611 15.08862936 72944,6917.81,95.436,540.711,538.64,0.0
53180.0,STARLINK-4258,PAYLOAD,2023-11-07 09:31:18,15.08822448,0.0001432,53.2185,354.5727,98.1381,261.9773,0.00048691,7.466e-05,0.0,0 STARLINK-4258,1 53180U 22083BA  23311.39674304  .00007466  00000-0  48691-3 0  9992,2 53180  53.2185 354.5727 0001432  98.1381 261.9773 15.08822448 73733,6917.934,95.439,540.79,538.808,0.0
53180.0,STARLINK-4258,PAYLOAD,2023-11-07 12:42:05,15.08825044,0.0001336,53.2185,353.9777,95.7243,264.3902,0.00073899,0.00011488,0.0,0 STARLINK-4258,1 53180U 22083BA  23311.52922757  .00011488  00000-0  73899-3 0  9992,2 53180  53.2185 353.9777 0001336  95.7243 264.3902 15.08825044 73112,6917.926,95.439,540.715,538.867,0.0
53180.0,STARLINK-4258,PAYLOAD,2023-11-08 09:22:06,15.08843581,0.0001709,53.2183,350.113,104.4209,255.6973,0.0014764,0.00023289,0.0,0 STARLINK-4258,1 53180U 22083BA  23312.39034765  .00023289  00000-0  14764-2 0  9998,2 53180  53.2183 350.1130 0001709 104.4209 255.6973 15.08843581 73247,6917.869,95.437,540.917,538.552,0.0
53180.0,STARLINK-4258,PAYLOAD,2023-11-09 02:51:19,15.08862808,0.0001854,53.2198,346.8426,97.788,262.3323,0.00037717,5.723e-05,0.0,0 STARLINK-4258,1 53180U 22083BA  23313.11897906  .00005723  00000-0  37717-3 0  9990,2 53180  53.2198 346.8426 0001854  97.7880 262.3323 15.08862808 73992,6917.811,95.436,540.958,538.393,0.0
53180.0,STARLINK-4258,PAYLOAD,2023-11-09 09:12:52,15.08856399,0.0001703,53.2193,345.6536,104.8437,255.2744,0.00038761,5.889e-05,0.0,0 STARLINK-4258,1 53180U 22083BA  23313.38393735  .00005889  00000-0  38761-3 0  9993,2 53180  53.2193 345.6536 0001703 104.8437 255.2744 15.08856399 74039,6917.83,95.437,540.873,538.517,0.0
53180.0,STARLINK-4258,PAYLOAD,2023-11-09 18:45:10,15.08854666,0.0001867,53.2181,343.8661,75.3212,284.7987,7.6959e-05,9.37e-06,0.0,0 STARLINK-4258,1 53180U 22083BA  23313.78137446  .00000937  00000-0  76959-4 0  9993,2 53180  53.2181 343.8661 0001867  75.3212 284.7987 15.08854666 73455,6917.836,95.437,540.992,538.409,0.0
53180.0,STARLINK-4258,PAYLOAD,2023-11-10 02:42:06,15.0884932,0.0001941,53.2188,342.3858,102.2094,257.9116,-4.0483e-05,-9.33e-06,0.0,0 STARLINK-4258,1 53180U 22083BA  23314.11257548 -.00000933  00000-0 -40483-4 0  9998,2 53180  53.2188 342.3858 0001941 102.2094 257.9116 15.08849320 74149,6917.852,95.437,541.06,538.374,0.0
53180.0,STARLINK-4258,PAYLOAD,2023-11-10 09:03:39,15.08845156,0.0001842,53.2192,341.1971,112.0784,248.0404,-9.6891e-05,-1.83e-05,0.0,0 STARLINK-4258,1 53180U 22083BA  23314.37753552 -.00001830  00000-0 -96891-4 0  9993,2 53180  53.2192 341.1971 0001842 112.0784 248.0404 15.08845156 73549,6917.865,95.437,541.004,538.455,0.0
53180.0,STARLINK-4258,PAYLOAD,2023-11-10 18:35:57,15.08841069,0.000177,53.2195,339.4133,109.2593,250.859,-0.00018356,-3.208e-05,0.0,0 STARLINK-4258,1 53180U 22083BA  23314.77497627 -.00003208  00000-0 -18356-3 0  9995,2 53180  53.2195 339.4133 0001770 109.2593 250.8590 15.08841069 74242,6917.877,95.437,540.967,538.518,0.0
53180.0,STARLINK-4258,PAYLOAD,2023-11-11 07:19:02,15.08844901,0.0001691,53.219,337.034,106.7712,253.3466,2.5306e-05,1.15e-06,0.0,0 STARLINK-4258,1 53180U 22083BA  23315.30489421  .00000115  00000-0  25306-4 0  9994,2 53180  53.2190 337.0340 0001691 106.7712 253.3466 15.08844901 73683,6917.865,95.437,540.9,538.561,0.0
53180.0,STARLINK-4258,PAYLOAD,2023-11-12 00:48:17,15.08838054,0.0001469,53.2187,333.7604,98.8567,261.2592,0.00015659,2.205e-05,0.0,0 STARLINK-4258,1 53180U 22083BA  23316.03353796  .00002205  00000-0  15659-3 0  9991,2 53180  53.2187 333.7604 0001469  98.8567 261.2592 15.08838054 74431,6917.886,95.438,540.768,538.735,0.0
53180.0,STARLINK-4258,PAYLOAD,2023-11-12 08:45:13,15.0883735,0.0001287,53.2181,332.2707,87.7956,272.3184,0.00013914,1.927e-05,0.0,0 STARLINK-4258,1 53180U 22083BA  23316.36474036  .00001927  00000-0  13914-3 0  9990,2 53180  53.2181 332.2707 0001287  87.7956 272.3184 15.08837350 73842,6917.888,95.438,540.644,538.863,0.0
53180.0,STARLINK-4258,PAYLOAD,2023-11-13 10:11:22,15.08854067,0.0001515,53.2188,327.5116,96.7138,263.4026,0.00019924,2.886e-05,0.0,0 STARLINK-4258,1 53180U 22083BA  23317.42456773  .00002886  00000-0  19924-3 0  9998,2 53180  53.2188 327.5116 0001515  96.7138 263.4026 15.08854067 74645,6917.837,95.437,540.75,538.654,0.0
53180.0,STARLINK-4258,PAYLOAD,2023-11-14 00:29:51,15.08839729,0.0001758,53.2177,324.8356,90.1953,269.9241,5.6892e-05,6.17e-06,0.0,0 STARLINK-4258,1 53180U 22083BA  23318.02073830  .00000617  00000-0  56892-4 0  9990,2 53180  53.2177 324.8356 0001758  90.1953 269.9241 15.08839729 74739,6917.881,95.438,540.962,538.53,0.0
53180.0,STARLINK-4258,PAYLOAD,2023-11-14 06:51:24,15.08840263,0.0001609,53.2178,323.6465,91.8711,268.2466,6.5316e-05,7.52e-06,0.0,0 STARLINK-4258,1 53180U 22083BA  23318.28569782  .00000752  00000-0  65316-4 0  9995,2 53180  53.2178 323.6465 0001609  91.8711 268.2466 15.08840263 74133,6917.88,95.438,540.858,538.631,0.0
53180.0,STARLINK-4258,PAYLOAD,2023-11-14 17:59:06,15.08841114,0.000158,53.2176,321.5658,88.5713,271.546,7.7125e-05,9.4e-06,0.0,0 STARLINK-4258,1 53180U 22083BA  23318.74937824  .00000940  00000-0  77125-4 0  9992,2 53180  53.2176 321.5658 0001580  88.5713 271.5460 15.08841114 74200,6917.877,95.437,540.835,538.649,0.0
53180.0,STARLINK-4258,PAYLOAD,2023-11-15 03:31:24,15.08844963,0.0001598,53.218,319.7812,89.2589,270.8586,8.9441e-06,-1.46e-06,0.0,0 STARLINK-4258,1 53180U 22083BA  23319.14681654 -.00000146  00000-0  89441-5 0  9998,2 53180  53.2180 319.7812 0001598  89.2589 270.8586 15.08844963 74907,6917.865,95.437,540.836,538.625,0.0
53180.0,STARLINK-4258,PAYLOAD,2023-11-15 09:52:57,15.08848548,0.000161,53.2176,318.5909,93.2782,266.8395,0.00010205,1.337e-05,0.0,0 STARLINK-4258,1 53180U 22083BA  23319.41177403  .00001337  00000-0  10205-3 0  9992,2 53180  53.2176 318.5909 0001610  93.2782 266.8395 15.08848548 74301,6917.854,95.437,540.833,538.605,0.0
